{
    "type": "FeatureCollection",
    "features": [
        {
            "type": "Feature",
            "properties": {
                "type": "relation",
                "id": 9309043,
                "tags": {
                    "admin_level": "8",
                    "boundary": "administrative",
                    "name": "Haznedar Mahallesi",
                    "network": "TR34-Mahalle",
                    "type": "boundary",
                    "wikidata": "Q6069192",
                    "wikipedia": "tr:Haznedar, Güngören"
                }
            },
            "geometry": {
                "type": "MultiPolygon",
                "coordinates": [
                    [
                        [
                            [
                                28.8630531,
                                41.0143072
                            ],
                            [
                                28.8631036,
                                41.0142587
                            ],
                            [
                                28.8633341,
                                41.0140372
                            ],
                            [
                                28.8636482,
                                41.0137255
                            ],
                            [
                                28.8638937,
                                41.0134819
                            ],
                            [
                                28.8641586,
                                41.0132254
                            ],
                            [
                                28.86469,
                                41.0126779
                            ],
                            [
                                28.8668962,
                                41.0108614
                            ],
                            [
                                28.8681542,
                                41.0094999
                            ],
                            [
                                28.8705938,
                                41.0062744
                            ],
                            [
                                28.8708623,
                                41.0063893
                            ],
                            [
                                28.8709769,
                                41.0064436
                            ],
                            [
                                28.871565,
                                41.006698
                            ],
                            [
                                28.8725783,
                                41.0070741
                            ],
                            [
                                28.8730562,
                                41.0072222
                            ],
                            [
                                28.8735638,
                                41.0074281
                            ],
                            [
                                28.8740568,
                                41.0076594
                            ],
                            [
                                28.8743962,
                                41.0079036
                            ],
                            [
                                28.8740845,
                                41.0082616
                            ],
                            [
                                28.8730073,
                                41.0094755
                            ],
                            [
                                28.8731117,
                                41.0095222
                            ],
                            [
                                28.8731707,
                                41.0095667
                            ],
                            [
                                28.8720187,
                                41.0110157
                            ],
                            [
                                28.8706575,
                                41.0127278
                            ],
                            [
                                28.8702714,
                                41.0132134
                            ],
                            [
                                28.8694844,
                                41.0141772
                            ],
                            [
                                28.8692928,
                                41.0141571
                            ],
                            [
                                28.8689822,
                                41.0141296
                            ],
                            [
                                28.8686037,
                                41.0140958
                            ],
                            [
                                28.8684432,
                                41.0140815
                            ],
                            [
                                28.8677704,
                                41.0140296
                            ],
                            [
                                28.867418,
                                41.0140004
                            ],
                            [
                                28.8668282,
                                41.014006
                            ],
                            [
                                28.8663368,
                                41.0140383
                            ],
                            [
                                28.8657702,
                                41.0140746
                            ],
                            [
                                28.8652356,
                                41.014106
                            ],
                            [
                                28.8650377,
                                41.0141177
                            ],
                            [
                                28.8648979,
                                41.0141278
                            ],
                            [
                                28.8644696,
                                41.0141491
                            ],
                            [
                                28.8641209,
                                41.0141772
                            ],
                            [
                                28.8640616,
                                41.0141841
                            ],
                            [
                                28.863793,
                                41.0142173
                            ],
                            [
                                28.8634407,
                                41.0142563
                            ],
                            [
                                28.8633118,
                                41.0142713
                            ],
                            [
                                28.8630531,
                                41.0143072
                            ]
                        ]
                    ]
                ]
            }
        },
        {
            "type": "Feature",
            "properties": {
                "type": "relation",
                "id": 9391449,
                "tags": {
                    "admin_level": "8",
                    "boundary": "administrative",
                    "name": "Abdurrahman Nafiz Gürman Mahallesi",
                    "type": "boundary",
                    "wikidata": "Q6038467",
                    "wikimedia_commons": "Category:Abdurrahman Nafiz Gürman, Güngören",
                    "wikipedia": "tr:Abdurrahman Nafiz Gürman, Güngören"
                }
            },
            "geometry": {
                "type": "MultiPolygon",
                "coordinates": [
                    [
                        [
                            [
                                28.8812927,
                                41.0076657
                            ],
                            [
                                28.8814061,
                                41.0068869
                            ],
                            [
                                28.8815524,
                                41.0062641
                            ],
                            [
                                28.8820325,
                                41.0054376
                            ],
                            [
                                28.8827868,
                                41.0046671
                            ],
                            [
                                28.8846773,
                                41.003597
                            ],
                            [
                                28.8853272,
                                41.0025111
                            ],
                            [
                                28.8855014,
                                41.0021824
                            ],
                            [
                                28.8857606,
                                41.0016974
                            ],
                            [
                                28.8893626,
                                41.0027814
                            ],
                            [
                                28.8899459,
                                41.0029741
                            ],
                            [
                                28.8904885,
                                41.0031976
                            ],
                            [
                                28.8914969,
                                41.0037191
                            ],
                            [
                                28.8921107,
                                41.0040806
                            ],
                            [
                                28.8925822,
                                41.0043776
                            ],
                            [
                                28.8935462,
                                41.0050911
                            ],
                            [
                                28.8941378,
                                41.0054281
                            ],
                            [
                                28.895734,
                                41.0065523
                            ],
                            [
                                28.8959518,
                                41.0066949
                            ],
                            [
                                28.8982272,
                                41.0081961
                            ],
                            [
                                28.8975661,
                                41.0083756
                            ],
                            [
                                28.896585,
                                41.0086126
                            ],
                            [
                                28.8964458,
                                41.0083321
                            ],
                            [
                                28.8963297,
                                41.0079472
                            ],
                            [
                                28.8950308,
                                41.0071388
                            ],
                            [
                                28.894902,
                                41.0070526
                            ],
                            [
                                28.894315,
                                41.0077193
                            ],
                            [
                                28.8939868,
                                41.0080617
                            ],
                            [
                                28.8934005,
                                41.0087374
                            ],
                            [
                                28.8927609,
                                41.0094348
                            ],
                            [
                                28.8928227,
                                41.0098146
                            ],
                            [
                                28.8918791,
                                41.0098907
                            ],
                            [
                                28.8905863,
                                41.0096599
                            ],
                            [
                                28.8833497,
                                41.0080124
                            ],
                            [
                                28.8818534,
                                41.0076853
                            ],
                            [
                                28.8812927,
                                41.0076657
                            ]
                        ]
                    ]
                ]
            }
        },
        {
            "type": "Feature",
            "properties": {
                "type": "relation",
                "id": 9391461,
                "tags": {
                    "admin_level": "8",
                    "boundary": "administrative",
                    "name": "Mehmet Nesih Özmen Mahallesi",
                    "type": "boundary",
                    "wikidata": "Q6040090",
                    "wikipedia": "tr:Mehmet Nesih Özmen, Güngören"
                }
            },
            "geometry": {
                "type": "MultiPolygon",
                "coordinates": [
                    [
                        [
                            [
                                28.8809852,
                                41.0165466
                            ],
                            [
                                28.8806741,
                                41.0161192
                            ],
                            [
                                28.8804122,
                                41.0151773
                            ],
                            [
                                28.8802794,
                                41.0145636
                            ],
                            [
                                28.880928,
                                41.0117324
                            ],
                            [
                                28.8811395,
                                41.0105592
                            ],
                            [
                                28.8812927,
                                41.0076657
                            ],
                            [
                                28.8818534,
                                41.0076853
                            ],
                            [
                                28.8833497,
                                41.0080124
                            ],
                            [
                                28.8905863,
                                41.0096599
                            ],
                            [
                                28.8918791,
                                41.0098907
                            ],
                            [
                                28.8928227,
                                41.0098146
                            ],
                            [
                                28.8933255,
                                41.0097424
                            ],
                            [
                                28.8932598,
                                41.0103537
                            ],
                            [
                                28.893803,
                                41.010993
                            ],
                            [
                                28.8941306,
                                41.0113785
                            ],
                            [
                                28.894161,
                                41.0114143
                            ],
                            [
                                28.8940833,
                                41.0115488
                            ],
                            [
                                28.8935474,
                                41.0114189
                            ],
                            [
                                28.8938123,
                                41.0121287
                            ],
                            [
                                28.8936475,
                                41.0121831
                            ],
                            [
                                28.8937452,
                                41.0123635
                            ],
                            [
                                28.8934841,
                                41.0124655
                            ],
                            [
                                28.8932383,
                                41.0125031
                            ],
                            [
                                28.8929647,
                                41.0125031
                            ],
                            [
                                28.8923688,
                                41.0125186
                            ],
                            [
                                28.8918515,
                                41.0145163
                            ],
                            [
                                28.8912939,
                                41.0165602
                            ],
                            [
                                28.8910601,
                                41.0174266
                            ],
                            [
                                28.8908805,
                                41.0179211
                            ],
                            [
                                28.8897888,
                                41.0173966
                            ],
                            [
                                28.8893156,
                                41.0173263
                            ],
                            [
                                28.8884868,
                                41.017398
                            ],
                            [
                                28.8867534,
                                41.0174142
                            ],
                            [
                                28.8864023,
                                41.0174219
                            ],
                            [
                                28.8860655,
                                41.0175245
                            ],
                            [
                                28.8855895,
                                41.0178241
                            ],
                            [
                                28.8846036,
                                41.0184483
                            ],
                            [
                                28.8839847,
                                41.0187911
                            ],
                            [
                                28.8836442,
                                41.018908
                            ],
                            [
                                28.8834636,
                                41.0189146
                            ],
                            [
                                28.8832685,
                                41.0188478
                            ],
                            [
                                28.8830811,
                                41.0187188
                            ],
                            [
                                28.8821344,
                                41.0178304
                            ],
                            [
                                28.881091,
                                41.0166809
                            ],
                            [
                                28.8809852,
                                41.0165466
                            ]
                        ]
                    ]
                ]
            }
        },
        {
            "type": "Feature",
            "properties": {
                "type": "relation",
                "id": 9391469,
                "tags": {
                    "admin_level": "8",
                    "boundary": "administrative",
                    "name": "Tozkoparan Mahallesi",
                    "type": "boundary",
                    "wikidata": "Q6080667",
                    "wikipedia": "tr:Tozkoparan, Güngören"
                }
            },
            "geometry": {
                "type": "MultiPolygon",
                "coordinates": [
                    [
                        [
                            [
                                28.8908805,
                                41.0179211
                            ],
                            [
                                28.8910601,
                                41.0174266
                            ],
                            [
                                28.8912939,
                                41.0165602
                            ],
                            [
                                28.8918515,
                                41.0145163
                            ],
                            [
                                28.8923688,
                                41.0125186
                            ],
                            [
                                28.8929647,
                                41.0125031
                            ],
                            [
                                28.8932383,
                                41.0125031
                            ],
                            [
                                28.8934841,
                                41.0124655
                            ],
                            [
                                28.8937452,
                                41.0123635
                            ],
                            [
                                28.8936475,
                                41.0121831
                            ],
                            [
                                28.8938123,
                                41.0121287
                            ],
                            [
                                28.8935474,
                                41.0114189
                            ],
                            [
                                28.8940833,
                                41.0115488
                            ],
                            [
                                28.894161,
                                41.0114143
                            ],
                            [
                                28.8941306,
                                41.0113785
                            ],
                            [
                                28.893803,
                                41.010993
                            ],
                            [
                                28.8932598,
                                41.0103537
                            ],
                            [
                                28.8933255,
                                41.0097424
                            ],
                            [
                                28.8928227,
                                41.0098146
                            ],
                            [
                                28.8927609,
                                41.0094348
                            ],
                            [
                                28.8934005,
                                41.0087374
                            ],
                            [
                                28.8939868,
                                41.0080617
                            ],
                            [
                                28.894315,
                                41.0077193
                            ],
                            [
                                28.894902,
                                41.0070526
                            ],
                            [
                                28.8950308,
                                41.0071388
                            ],
                            [
                                28.8963297,
                                41.0079472
                            ],
                            [
                                28.8964458,
                                41.0083321
                            ],
                            [
                                28.896585,
                                41.0086126
                            ],
                            [
                                28.8975661,
                                41.0083756
                            ],
                            [
                                28.8979776,
                                41.0089957
                            ],
                            [
                                28.8984176,
                                41.0094308
                            ],
                            [
                                28.8987631,
                                41.0096927
                            ],
                            [
                                28.8991622,
                                41.0102108
                            ],
                            [
                                28.8991577,
                                41.0106529
                            ],
                            [
                                28.8991801,
                                41.0110098
                            ],
                            [
                                28.8993888,
                                41.0114651
                            ],
                            [
                                28.8995866,
                                41.0117705
                            ],
                            [
                                28.8998696,
                                41.0120538
                            ],
                            [
                                28.899959,
                                41.0125301
                            ],
                            [
                                28.900162,
                                41.0128962
                            ],
                            [
                                28.9002013,
                                41.0130901
                            ],
                            [
                                28.900587,
                                41.013534
                            ],
                            [
                                28.9009899,
                                41.013928
                            ],
                            [
                                28.9008826,
                                41.0141223
                            ],
                            [
                                28.9008401,
                                41.0143155
                            ],
                            [
                                28.901521,
                                41.0144906
                            ],
                            [
                                28.9022344,
                                41.0145715
                            ],
                            [
                                28.902272,
                                41.0153001
                            ],
                            [
                                28.9023533,
                                41.015667
                            ],
                            [
                                28.902357,
                                41.0158482
                            ],
                            [
                                28.9023238,
                                41.0159605
                            ],
                            [
                                28.9022878,
                                41.0162735
                            ],
                            [
                                28.9023258,
                                41.0166437
                            ],
                            [
                                28.9025818,
                                41.0170093
                            ],
                            [
                                28.9018682,
                                41.0172694
                            ],
                            [
                                28.9016902,
                                41.0172914
                            ],
                            [
                                28.9012606,
                                41.0172557
                            ],
                            [
                                28.9006543,
                                41.0172839
                            ],
                            [
                                28.9006963,
                                41.0173883
                            ],
                            [
                                28.9008436,
                                41.017855
                            ],
                            [
                                28.9009223,
                                41.0181397
                            ],
                            [
                                28.9009549,
                                41.0183349
                            ],
                            [
                                28.9009565,
                                41.0184419
                            ],
                            [
                                28.900958,
                                41.0188026
                            ],
                            [
                                28.900845,
                                41.0198111
                            ],
                            [
                                28.9007279,
                                41.0204057
                            ],
                            [
                                28.9006289,
                                41.020689
                            ],
                            [
                                28.9004344,
                                41.0206444
                            ],
                            [
                                28.9002475,
                                41.0205857
                            ],
                            [
                                28.9001403,
                                41.0205365
                            ],
                            [
                                28.9000168,
                                41.0204617
                            ],
                            [
                                28.8999361,
                                41.0203801
                            ],
                            [
                                28.8998702,
                                41.0203129
                            ],
                            [
                                28.8997943,
                                41.0202078
                            ],
                            [
                                28.8994173,
                                41.0195971
                            ],
                            [
                                28.8993165,
                                41.0194669
                            ],
                            [
                                28.8991387,
                                41.01932
                            ],
                            [
                                28.8990498,
                                41.0192547
                            ],
                            [
                                28.8989418,
                                41.0191915
                            ],
                            [
                                28.8988061,
                                41.019127
                            ],
                            [
                                28.8985146,
                                41.0190267
                            ],
                            [
                                28.8982755,
                                41.0189909
                            ],
                            [
                                28.8979181,
                                41.0189445
                            ],
                            [
                                28.8977144,
                                41.0189301
                            ],
                            [
                                28.8974762,
                                41.0189153
                            ],
                            [
                                28.8970209,
                                41.0189189
                            ],
                            [
                                28.8950449,
                                41.0190017
                            ],
                            [
                                28.8941889,
                                41.0189208
                            ],
                            [
                                28.8929855,
                                41.0188504
                            ],
                            [
                                28.8923096,
                                41.0187492
                            ],
                            [
                                28.8915141,
                                41.0182147
                            ],
                            [
                                28.8908805,
                                41.0179211
                            ]
                        ]
                    ]
                ]
            }
        },
        {
            "type": "Feature",
            "properties": {
                "type": "relation",
                "id": 9393065,
                "tags": {
                    "admin_level": "8",
                    "boundary": "administrative",
                    "name": "Sanayi Mahallesi",
                    "type": "boundary",
                    "wikidata": "Q6075378"
                }
            },
            "geometry": {
                "type": "MultiPolygon",
                "coordinates": [
                    [
                        [
                            [
                                28.8779363,
                                41.0161869
                            ],
                            [
                                28.8794126,
                                41.0163942
                            ],
                            [
                                28.8807073,
                                41.0164995
                            ],
                            [
                                28.8809852,
                                41.0165466
                            ],
                            [
                                28.881091,
                                41.0166809
                            ],
                            [
                                28.8821344,
                                41.0178304
                            ],
                            [
                                28.8830811,
                                41.0187188
                            ],
                            [
                                28.8832685,
                                41.0188478
                            ],
                            [
                                28.8834636,
                                41.0189146
                            ],
                            [
                                28.8836442,
                                41.018908
                            ],
                            [
                                28.8839847,
                                41.0187911
                            ],
                            [
                                28.8846036,
                                41.0184483
                            ],
                            [
                                28.8855895,
                                41.0178241
                            ],
                            [
                                28.8860655,
                                41.0175245
                            ],
                            [
                                28.8864023,
                                41.0174219
                            ],
                            [
                                28.8867534,
                                41.0174142
                            ],
                            [
                                28.8867893,
                                41.0175777
                            ],
                            [
                                28.886685,
                                41.0182755
                            ],
                            [
                                28.8866887,
                                41.0185943
                            ],
                            [
                                28.8867516,
                                41.0188484
                            ],
                            [
                                28.887326,
                                41.0207747
                            ],
                            [
                                28.8857113,
                                41.0220093
                            ],
                            [
                                28.8854227,
                                41.0226141
                            ],
                            [
                                28.8849849,
                                41.0236592
                            ],
                            [
                                28.8840032,
                                41.0259175
                            ],
                            [
                                28.8836921,
                                41.0258972
                            ],
                            [
                                28.8833702,
                                41.0259337
                            ],
                            [
                                28.8826087,
                                41.026072
                            ],
                            [
                                28.8823215,
                                41.0261664
                            ],
                            [
                                28.8819433,
                                41.0262736
                            ],
                            [
                                28.8817234,
                                41.026306
                            ],
                            [
                                28.8814229,
                                41.0262979
                            ],
                            [
                                28.8811869,
                                41.0269009
                            ],
                            [
                                28.8800165,
                                41.0267279
                            ],
                            [
                                28.8788369,
                                41.0265463
                            ],
                            [
                                28.8789174,
                                41.0261133
                            ],
                            [
                                28.8787994,
                                41.0257126
                            ],
                            [
                                28.8786384,
                                41.025231
                            ],
                            [
                                28.8786653,
                                41.0241383
                            ],
                            [
                                28.8786867,
                                41.0239319
                            ],
                            [
                                28.8790247,
                                41.0230658
                            ],
                            [
                                28.8790676,
                                41.0228675
                            ],
                            [
                                28.8792285,
                                41.0218678
                            ],
                            [
                                28.8795129,
                                41.021366
                            ],
                            [
                                28.8785258,
                                41.0209815
                            ],
                            [
                                28.8782093,
                                41.0209086
                            ],
                            [
                                28.8765839,
                                41.0206334
                            ],
                            [
                                28.8761225,
                                41.0206132
                            ],
                            [
                                28.8754788,
                                41.020678
                            ],
                            [
                                28.8745025,
                                41.0207994
                            ],
                            [
                                28.8739285,
                                41.0209612
                            ],
                            [
                                28.873907,
                                41.020346
                            ],
                            [
                                28.8736602,
                                41.020346
                            ],
                            [
                                28.8752514,
                                41.0187891
                            ],
                            [
                                28.8768523,
                                41.0171452
                            ],
                            [
                                28.8779363,
                                41.0161869
                            ]
                        ]
                    ]
                ]
            }
        },
        {
            "type": "Feature",
            "properties": {
                "type": "relation",
                "id": 9393066,
                "tags": {
                    "admin_level": "8",
                    "boundary": "administrative",
                    "name": "Gençosman Mahallesi",
                    "type": "boundary",
                    "wikidata": "Q6041617"
                }
            },
            "geometry": {
                "type": "MultiPolygon",
                "coordinates": [
                    [
                        [
                            [
                                28.8712227,
                                41.0384466
                            ],
                            [
                                28.8712413,
                                41.0382662
                            ],
                            [
                                28.8712411,
                                41.0380047
                            ],
                            [
                                28.8713451,
                                41.0374721
                            ],
                            [
                                28.8714381,
                                41.0369957
                            ],
                            [
                                28.8713885,
                                41.0365264
                            ],
                            [
                                28.8713845,
                                41.0361405
                            ],
                            [
                                28.8714824,
                                41.0347326
                            ],
                            [
                                28.8715746,
                                41.0339125
                            ],
                            [
                                28.8723218,
                                41.0315778
                            ],
                            [
                                28.8725401,
                                41.0301578
                            ],
                            [
                                28.872651,
                                41.0294059
                            ],
                            [
                                28.8727421,
                                41.0286774
                            ],
                            [
                                28.872744,
                                41.0284118
                            ],
                            [
                                28.8726936,
                                41.027948
                            ],
                            [
                                28.8728087,
                                41.0276291
                            ],
                            [
                                28.8730627,
                                41.0272639
                            ],
                            [
                                28.8735294,
                                41.0268834
                            ],
                            [
                                28.8738264,
                                41.0266513
                            ],
                            [
                                28.8740203,
                                41.0265455
                            ],
                            [
                                28.8742134,
                                41.0265435
                            ],
                            [
                                28.8744712,
                                41.0265165
                            ],
                            [
                                28.8754537,
                                41.0262128
                            ],
                            [
                                28.8757932,
                                41.0262906
                            ],
                            [
                                28.876141,
                                41.0263564
                            ],
                            [
                                28.8776058,
                                41.0264133
                            ],
                            [
                                28.8788369,
                                41.0265463
                            ],
                            [
                                28.8800165,
                                41.0267279
                            ],
                            [
                                28.8811869,
                                41.0269009
                            ],
                            [
                                28.8814229,
                                41.0262979
                            ],
                            [
                                28.8817234,
                                41.026306
                            ],
                            [
                                28.8819433,
                                41.0262736
                            ],
                            [
                                28.8823215,
                                41.0261664
                            ],
                            [
                                28.8826087,
                                41.026072
                            ],
                            [
                                28.8833702,
                                41.0259337
                            ],
                            [
                                28.8836921,
                                41.0258972
                            ],
                            [
                                28.8840032,
                                41.0259175
                            ],
                            [
                                28.8849849,
                                41.0236592
                            ],
                            [
                                28.8854227,
                                41.0226141
                            ],
                            [
                                28.8861744,
                                41.0226418
                            ],
                            [
                                28.8861681,
                                41.0227391
                            ],
                            [
                                28.8861814,
                                41.0228539
                            ],
                            [
                                28.8862061,
                                41.0229554
                            ],
                            [
                                28.8863223,
                                41.0233402
                            ],
                            [
                                28.8863434,
                                41.0234241
                            ],
                            [
                                28.8864652,
                                41.0239078
                            ],
                            [
                                28.8864739,
                                41.0239427
                            ],
                            [
                                28.8865847,
                                41.0242524
                            ],
                            [
                                28.8866893,
                                41.0245041
                            ],
                            [
                                28.8867956,
                                41.0247296
                            ],
                            [
                                28.8869303,
                                41.0249647
                            ],
                            [
                                28.8870505,
                                41.0251406
                            ],
                            [
                                28.8872518,
                                41.0253321
                            ],
                            [
                                28.8882251,
                                41.0262584
                            ],
                            [
                                28.8885105,
                                41.0264884
                            ],
                            [
                                28.8886922,
                                41.026682
                            ],
                            [
                                28.8888474,
                                41.0268712
                            ],
                            [
                                28.8891188,
                                41.0272299
                            ],
                            [
                                28.8896481,
                                41.0278784
                            ],
                            [
                                28.8896921,
                                41.0279329
                            ],
                            [
                                28.8898706,
                                41.0281855
                            ],
                            [
                                28.8907055,
                                41.029469
                            ],
                            [
                                28.8905535,
                                41.0297034
                            ],
                            [
                                28.8904785,
                                41.0298557
                            ],
                            [
                                28.8902577,
                                41.0300065
                            ],
                            [
                                28.8883467,
                                41.0316948
                            ],
                            [
                                28.8871088,
                                41.0326017
                            ],
                            [
                                28.88693,
                                41.0326701
                            ],
                            [
                                28.8857421,
                                41.0336414
                            ],
                            [
                                28.8854573,
                                41.0339974
                            ],
                            [
                                28.8846356,
                                41.0339612
                            ],
                            [
                                28.8834318,
                                41.033666
                            ],
                            [
                                28.882507,
                                41.0333987
                            ],
                            [
                                28.8811285,
                                41.0328868
                            ],
                            [
                                28.8794642,
                                41.0324329
                            ],
                            [
                                28.8783563,
                                41.0321346
                            ],
                            [
                                28.8773593,
                                41.03196
                            ],
                            [
                                28.8764859,
                                41.0318455
                            ],
                            [
                                28.8757006,
                                41.0337337
                            ],
                            [
                                28.8756305,
                                41.0338818
                            ],
                            [
                                28.8755652,
                                41.0340498
                            ],
                            [
                                28.8752397,
                                41.0347073
                            ],
                            [
                                28.8750199,
                                41.0349917
                            ],
                            [
                                28.8746201,
                                41.0354845
                            ],
                            [
                                28.8745426,
                                41.0356654
                            ],
                            [
                                28.8746196,
                                41.0363905
                            ],
                            [
                                28.8744317,
                                41.0367972
                            ],
                            [
                                28.8731099,
                                41.037664
                            ],
                            [
                                28.8725399,
                                41.0384821
                            ],
                            [
                                28.8712227,
                                41.0384466
                            ]
                        ]
                    ]
                ]
            }
        },
        {
            "type": "Feature",
            "properties": {
                "type": "relation",
                "id": 9393094,
                "tags": {
                    "admin_level": "8",
                    "boundary": "administrative",
                    "name": "Güven Mahallesi",
                    "type": "boundary",
                    "wikidata": "Q6071161"
                }
            },
            "geometry": {
                "type": "MultiPolygon",
                "coordinates": [
                    [
                        [
                            [
                                28.8694844,
                                41.0141772
                            ],
                            [
                                28.8702714,
                                41.0132134
                            ],
                            [
                                28.8706575,
                                41.0127278
                            ],
                            [
                                28.8720187,
                                41.0110157
                            ],
                            [
                                28.8731707,
                                41.0095667
                            ],
                            [
                                28.8731117,
                                41.0095222
                            ],
                            [
                                28.8730073,
                                41.0094755
                            ],
                            [
                                28.8740845,
                                41.0082616
                            ],
                            [
                                28.8743962,
                                41.0079036
                            ],
                            [
                                28.8746724,
                                41.0081175
                            ],
                            [
                                28.8751857,
                                41.0086459
                            ],
                            [
                                28.875329,
                                41.009902
                            ],
                            [
                                28.8771234,
                                41.0117182
                            ],
                            [
                                28.8776822,
                                41.0126733
                            ],
                            [
                                28.8779865,
                                41.0133424
                            ],
                            [
                                28.8780832,
                                41.0143295
                            ],
                            [
                                28.8782646,
                                41.0146729
                            ],
                            [
                                28.8794126,
                                41.0163942
                            ],
                            [
                                28.8779363,
                                41.0161869
                            ],
                            [
                                28.8755439,
                                41.0154907
                            ],
                            [
                                28.8747569,
                                41.0148057
                            ],
                            [
                                28.8742419,
                                41.0144333
                            ],
                            [
                                28.8736545,
                                41.0142127
                            ],
                            [
                                28.872595,
                                41.0139679
                            ],
                            [
                                28.8716939,
                                41.0138666
                            ],
                            [
                                28.8713425,
                                41.0138565
                            ],
                            [
                                28.8710769,
                                41.0139233
                            ],
                            [
                                28.870637,
                                41.0141136
                            ],
                            [
                                28.8703205,
                                41.0142148
                            ],
                            [
                                28.8697358,
                                41.0142026
                            ],
                            [
                                28.8694844,
                                41.0141772
                            ]
                        ]
                    ]
                ]
            }
        },
        {
            "type": "Feature",
            "properties": {
                "type": "relation",
                "id": 9393125,
                "tags": {
                    "admin_level": "8",
                    "alt_name": "Mareşalçakmak Mahallesi",
                    "boundary": "administrative",
                    "name": "Mareşal Çakmak Mahallesi",
                    "type": "boundary",
                    "wikidata": "Q6044911",
                    "wikipedia": "tr:Mareşal Çakmak, Güngören"
                }
            },
            "geometry": {
                "type": "MultiPolygon",
                "coordinates": [
                    [
                        [
                            [
                                28.8601491,
                                41.0175556
                            ],
                            [
                                28.8605043,
                                41.0169798
                            ],
                            [
                                28.8614904,
                                41.0157138
                            ],
                            [
                                28.8625997,
                                41.014702
                            ],
                            [
                                28.8630531,
                                41.0143072
                            ],
                            [
                                28.8633118,
                                41.0142713
                            ],
                            [
                                28.8634407,
                                41.0142563
                            ],
                            [
                                28.863793,
                                41.0142173
                            ],
                            [
                                28.8640616,
                                41.0141841
                            ],
                            [
                                28.8641209,
                                41.0141772
                            ],
                            [
                                28.8644696,
                                41.0141491
                            ],
                            [
                                28.8648979,
                                41.0141278
                            ],
                            [
                                28.8650377,
                                41.0141177
                            ],
                            [
                                28.8652356,
                                41.014106
                            ],
                            [
                                28.8656104,
                                41.0158006
                            ],
                            [
                                28.8657847,
                                41.0161426
                            ],
                            [
                                28.8660073,
                                41.0160535
                            ],
                            [
                                28.8661629,
                                41.0162701
                            ],
                            [
                                28.8690372,
                                41.0183969
                            ],
                            [
                                28.8694551,
                                41.0187533
                            ],
                            [
                                28.8694238,
                                41.0187877
                            ],
                            [
                                28.8686889,
                                41.0196903
                            ],
                            [
                                28.8684988,
                                41.0199063
                            ],
                            [
                                28.8683072,
                                41.0200554
                            ],
                            [
                                28.8670742,
                                41.0209864
                            ],
                            [
                                28.8664859,
                                41.021517
                            ],
                            [
                                28.8659262,
                                41.0221105
                            ],
                            [
                                28.8628631,
                                41.0207426
                            ],
                            [
                                28.8624117,
                                41.0205701
                            ],
                            [
                                28.8621704,
                                41.020468
                            ],
                            [
                                28.862329,
                                41.0202141
                            ],
                            [
                                28.8630768,
                                41.0190498
                            ],
                            [
                                28.8627742,
                                41.0188931
                            ],
                            [
                                28.8610387,
                                41.018
                            ],
                            [
                                28.8601491,
                                41.0175556
                            ]
                        ]
                    ]
                ]
            }
        },
        {
            "type": "Feature",
            "properties": {
                "type": "relation",
                "id": 9393126,
                "tags": {
                    "admin_level": "8",
                    "boundary": "administrative",
                    "name": "Akıncılar Mahallesi",
                    "type": "boundary",
                    "wikidata": "Q6036205",
                    "wikipedia": "tr:Akıncılar, Güngören"
                }
            },
            "geometry": {
                "type": "MultiPolygon",
                "coordinates": [
                    [
                        [
                            [
                                28.8652356,
                                41.014106
                            ],
                            [
                                28.8657702,
                                41.0140746
                            ],
                            [
                                28.8663368,
                                41.0140383
                            ],
                            [
                                28.8668282,
                                41.014006
                            ],
                            [
                                28.867418,
                                41.0140004
                            ],
                            [
                                28.8677704,
                                41.0140296
                            ],
                            [
                                28.8684432,
                                41.0140815
                            ],
                            [
                                28.8686037,
                                41.0140958
                            ],
                            [
                                28.8689822,
                                41.0141296
                            ],
                            [
                                28.8692928,
                                41.0141571
                            ],
                            [
                                28.8694844,
                                41.0141772
                            ],
                            [
                                28.8697358,
                                41.0142026
                            ],
                            [
                                28.8703205,
                                41.0142148
                            ],
                            [
                                28.870637,
                                41.0141136
                            ],
                            [
                                28.8710769,
                                41.0139233
                            ],
                            [
                                28.8713425,
                                41.0138565
                            ],
                            [
                                28.8716939,
                                41.0138666
                            ],
                            [
                                28.872595,
                                41.0139679
                            ],
                            [
                                28.8736545,
                                41.0142127
                            ],
                            [
                                28.8742419,
                                41.0144333
                            ],
                            [
                                28.8747569,
                                41.0148057
                            ],
                            [
                                28.8755439,
                                41.0154907
                            ],
                            [
                                28.8752062,
                                41.0155067
                            ],
                            [
                                28.8721704,
                                41.016687
                            ],
                            [
                                28.871119,
                                41.017363
                            ],
                            [
                                28.8701695,
                                41.0179701
                            ],
                            [
                                28.8694551,
                                41.0187533
                            ],
                            [
                                28.8690372,
                                41.0183969
                            ],
                            [
                                28.8661629,
                                41.0162701
                            ],
                            [
                                28.8660073,
                                41.0160535
                            ],
                            [
                                28.8657847,
                                41.0161426
                            ],
                            [
                                28.8656104,
                                41.0158006
                            ],
                            [
                                28.8652356,
                                41.014106
                            ]
                        ]
                    ]
                ]
            }
        },
        {
            "type": "Feature",
            "properties": {
                "type": "relation",
                "id": 9393147,
                "tags": {
                    "admin_level": "8",
                    "boundary": "administrative",
                    "name": "Güneştepe Mahallesi",
                    "type": "boundary",
                    "wikidata": "Q6038308",
                    "wikipedia": "tr:Güneştepe, Güngören"
                }
            },
            "geometry": {
                "type": "MultiPolygon",
                "coordinates": [
                    [
                        [
                            [
                                28.8590211,
                                41.0276192
                            ],
                            [
                                28.8590034,
                                41.027355
                            ],
                            [
                                28.8590103,
                                41.0270487
                            ],
                            [
                                28.8591165,
                                41.0267086
                            ],
                            [
                                28.8592603,
                                41.0261608
                            ],
                            [
                                28.8593693,
                                41.0258184
                            ],
                            [
                                28.8594816,
                                41.025565
                            ],
                            [
                                28.859778,
                                41.0251641
                            ],
                            [
                                28.860079,
                                41.0245188
                            ],
                            [
                                28.8602641,
                                41.0240397
                            ],
                            [
                                28.86067,
                                41.0233666
                            ],
                            [
                                28.8608852,
                                41.0230691
                            ],
                            [
                                28.8612556,
                                41.0226334
                            ],
                            [
                                28.8615157,
                                41.0223751
                            ],
                            [
                                28.8621373,
                                41.0218696
                            ],
                            [
                                28.8623724,
                                41.021617
                            ],
                            [
                                28.8625572,
                                41.0213359
                            ],
                            [
                                28.8620609,
                                41.021044
                            ],
                            [
                                28.8624117,
                                41.0205701
                            ],
                            [
                                28.8628631,
                                41.0207426
                            ],
                            [
                                28.8659262,
                                41.0221105
                            ],
                            [
                                28.8664859,
                                41.021517
                            ],
                            [
                                28.8670742,
                                41.0209864
                            ],
                            [
                                28.8674574,
                                41.0213194
                            ],
                            [
                                28.8677449,
                                41.0215577
                            ],
                            [
                                28.8679787,
                                41.0219666
                            ],
                            [
                                28.868203,
                                41.0221818
                            ],
                            [
                                28.8684815,
                                41.0223264
                            ],
                            [
                                28.8688188,
                                41.0224088
                            ],
                            [
                                28.8690913,
                                41.0231378
                            ],
                            [
                                28.8692392,
                                41.0233205
                            ],
                            [
                                28.8692905,
                                41.023376
                            ],
                            [
                                28.8693664,
                                41.0235409
                            ],
                            [
                                28.8695755,
                                41.0242573
                            ],
                            [
                                28.8696989,
                                41.024925
                            ],
                            [
                                28.8699189,
                                41.0252447
                            ],
                            [
                                28.8704982,
                                41.0257709
                            ],
                            [
                                28.8711419,
                                41.0261675
                            ],
                            [
                                28.8716087,
                                41.0260218
                            ],
                            [
                                28.8717535,
                                41.0259732
                            ],
                            [
                                28.8717508,
                                41.02604
                            ],
                            [
                                28.8716891,
                                41.0264669
                            ],
                            [
                                28.871194,
                                41.0278428
                            ],
                            [
                                28.8709758,
                                41.0278872
                            ],
                            [
                                28.8707303,
                                41.0279603
                            ],
                            [
                                28.8697941,
                                41.0286832
                            ],
                            [
                                28.8694874,
                                41.0288924
                            ],
                            [
                                28.8691728,
                                41.0290893
                            ],
                            [
                                28.8687162,
                                41.0292219
                            ],
                            [
                                28.868496,
                                41.0292573
                            ],
                            [
                                28.8677959,
                                41.0293904
                            ],
                            [
                                28.8674115,
                                41.0294758
                            ],
                            [
                                28.8671415,
                                41.0294713
                            ],
                            [
                                28.8652137,
                                41.029476
                            ],
                            [
                                28.8650448,
                                41.0294862
                            ],
                            [
                                28.8648455,
                                41.029518
                            ],
                            [
                                28.8646289,
                                41.0295741
                            ],
                            [
                                28.8642153,
                                41.0296677
                            ],
                            [
                                28.8639439,
                                41.0297441
                            ],
                            [
                                28.8632628,
                                41.0295284
                            ],
                            [
                                28.8630936,
                                41.029813
                            ],
                            [
                                28.8623106,
                                41.0295424
                            ],
                            [
                                28.8616296,
                                41.0293593
                            ],
                            [
                                28.8610242,
                                41.0292181
                            ],
                            [
                                28.8609121,
                                41.0294471
                            ],
                            [
                                28.8599337,
                                41.0292347
                            ],
                            [
                                28.8590939,
                                41.0287282
                            ],
                            [
                                28.8593611,
                                41.0281251
                            ],
                            [
                                28.859537,
                                41.0277158
                            ],
                            [
                                28.8590211,
                                41.0276192
                            ]
                        ]
                    ]
                ]
            }
        },
        {
            "type": "Feature",
            "properties": {
                "type": "relation",
                "id": 9393153,
                "tags": {
                    "admin_level": "8",
                    "alt_name": "Güngören Merkez Mahallesi",
                    "boundary": "administrative",
                    "name": "Merkez Mahallesi",
                    "type": "boundary",
                    "wikidata": "Q6073873"
                }
            },
            "geometry": {
                "type": "MultiPolygon",
                "coordinates": [
                    [
                        [
                            [
                                28.8670742,
                                41.0209864
                            ],
                            [
                                28.8683072,
                                41.0200554
                            ],
                            [
                                28.8684988,
                                41.0199063
                            ],
                            [
                                28.8686889,
                                41.0196903
                            ],
                            [
                                28.8694238,
                                41.0187877
                            ],
                            [
                                28.8694551,
                                41.0187533
                            ],
                            [
                                28.8701695,
                                41.0179701
                            ],
                            [
                                28.871119,
                                41.017363
                            ],
                            [
                                28.8721704,
                                41.016687
                            ],
                            [
                                28.8752062,
                                41.0155067
                            ],
                            [
                                28.8755439,
                                41.0154907
                            ],
                            [
                                28.8779363,
                                41.0161869
                            ],
                            [
                                28.8768523,
                                41.0171452
                            ],
                            [
                                28.8752514,
                                41.0187891
                            ],
                            [
                                28.8736602,
                                41.020346
                            ],
                            [
                                28.873907,
                                41.020346
                            ],
                            [
                                28.8739285,
                                41.0209612
                            ],
                            [
                                28.8745025,
                                41.0207994
                            ],
                            [
                                28.8754788,
                                41.020678
                            ],
                            [
                                28.8761225,
                                41.0206132
                            ],
                            [
                                28.8765839,
                                41.0206334
                            ],
                            [
                                28.8782093,
                                41.0209086
                            ],
                            [
                                28.8785258,
                                41.0209815
                            ],
                            [
                                28.8795129,
                                41.021366
                            ],
                            [
                                28.8792285,
                                41.0218678
                            ],
                            [
                                28.8790676,
                                41.0228675
                            ],
                            [
                                28.8790247,
                                41.0230658
                            ],
                            [
                                28.8786867,
                                41.0239319
                            ],
                            [
                                28.8786653,
                                41.0241383
                            ],
                            [
                                28.8786384,
                                41.025231
                            ],
                            [
                                28.8787994,
                                41.0257126
                            ],
                            [
                                28.8789174,
                                41.0261133
                            ],
                            [
                                28.8788369,
                                41.0265463
                            ],
                            [
                                28.8776058,
                                41.0264133
                            ],
                            [
                                28.876141,
                                41.0263564
                            ],
                            [
                                28.8757932,
                                41.0262906
                            ],
                            [
                                28.8754537,
                                41.0262128
                            ],
                            [
                                28.8744712,
                                41.0265165
                            ],
                            [
                                28.8742134,
                                41.0265435
                            ],
                            [
                                28.8740203,
                                41.0265455
                            ],
                            [
                                28.8738264,
                                41.0266513
                            ],
                            [
                                28.8735294,
                                41.0268834
                            ],
                            [
                                28.8730627,
                                41.0272639
                            ],
                            [
                                28.8728087,
                                41.0276291
                            ],
                            [
                                28.8726936,
                                41.027948
                            ],
                            [
                                28.8721722,
                                41.0272396
                            ],
                            [
                                28.8719952,
                                41.0276321
                            ],
                            [
                                28.8718396,
                                41.0277333
                            ],
                            [
                                28.871695,
                                41.0277845
                            ],
                            [
                                28.8714234,
                                41.0278076
                            ],
                            [
                                28.871194,
                                41.0278428
                            ],
                            [
                                28.8716891,
                                41.0264669
                            ],
                            [
                                28.8717508,
                                41.02604
                            ],
                            [
                                28.8717535,
                                41.0259732
                            ],
                            [
                                28.8716087,
                                41.0260218
                            ],
                            [
                                28.8711419,
                                41.0261675
                            ],
                            [
                                28.8704982,
                                41.0257709
                            ],
                            [
                                28.8699189,
                                41.0252447
                            ],
                            [
                                28.8696989,
                                41.024925
                            ],
                            [
                                28.8695755,
                                41.0242573
                            ],
                            [
                                28.8693664,
                                41.0235409
                            ],
                            [
                                28.8692905,
                                41.023376
                            ],
                            [
                                28.8692392,
                                41.0233205
                            ],
                            [
                                28.8690913,
                                41.0231378
                            ],
                            [
                                28.8688188,
                                41.0224088
                            ],
                            [
                                28.8684815,
                                41.0223264
                            ],
                            [
                                28.868203,
                                41.0221818
                            ],
                            [
                                28.8679787,
                                41.0219666
                            ],
                            [
                                28.8677449,
                                41.0215577
                            ],
                            [
                                28.8674574,
                                41.0213194
                            ],
                            [
                                28.8670742,
                                41.0209864
                            ]
                        ]
                    ]
                ]
            }
        }
    ]
}